OBJECT_NAME,OBJECT_ID,EPOCH,MEAN_MOTION,ECCENTRICITY,INCLINATION,RA_OF_ASC_NODE,ARG_OF_PERICENTER,MEAN_ANOMALY,EPHEMERIS_TYPE,CLASSIFICATION_TYPE,NORAD_CAT_ID,ELEMENT_SET_NO,REV_AT_EPOCH,BSTAR,MEAN_MOTION_DOT,MEAN_MOTION_DDOT
STARLINK-37396,2026-117U,2026-06-06T06:00:02.000160,15.99033804,.00005705,53.1567,298.3271,66.0518,11.2465,0,U,69256,999,248,-.43088372E-2,-.2124591E-1,.13151683E-2
STARLINK-37508,2026-117V,2026-06-06T06:00:02.000160,15.99317187,.00006609,53.1564,298.3139,58.1732,25.3310,0,U,69257,999,240,-.42812352E-2,-.2144909E-1,.13437087E-2
STARLINK-37276,2026-117W,2026-06-06T06:00:02.000160,16.03580565,.00005181,53.1561,298.2642,52.3603,54.7268,0,U,69258,999,240,-.28279866E-2,-.1820142E-1,.10355658E-2
STARLINK-37518,2026-117X,2026-06-06T06:00:02.000160,16.03500749,.00005669,53.1560,298.2524,46.2265,66.9131,0,U,69259,999,241,-.2834866E-2,-.1815926E-1,.10300845E-2
STARLINK-37478,2026-117Y,2026-06-06T06:00:02.000160,16.02942473,.00006877,53.1562,298.2454,48.0114,68.5052,0,U,69260,999,241,-.31511525E-2,-.1950665E-1,.11709929E-2
STARLINK-37506,2026-117Z,2026-06-06T06:00:02.000160,16.03033030,.00006446,53.1558,298.2364,49.2982,71.4934,0,U,69261,999,241,-.31903168E-2,-.1985163E-1,.12119405E-2
STARLINK-37503,2026-117AA,2026-06-06T06:00:02.000160,16.03072552,.00006738,53.1560,298.2240,48.7221,77.7130,0,U,69262,999,241,-.32683673E-2,-.2037931E-1,.1274688E-2
STARLINK-37502,2026-117AB,2026-06-06T06:00:02.000160,16.02729840,.00006395,53.1559,298.2168,52.7523,76.9680,0,U,69263,999,241,-.31929795E-2,-.1951744E-1,.11692153E-2
STARLINK-37486,2026-117AC,2026-06-06T06:00:02.000160,16.02756324,.00006405,53.1556,298.2054,51.3856,83.9965,0,U,69264,999,241,-.31453287E-2,-.192595E-1,.11405137E-2
STARLINK-37435,2026-117AD,2026-06-06T06:00:02.000160,16.03262041,.00005895,53.1556,298.1891,49.4424,93.2918,0,U,69265,999,241,-.3048568E-2,-.1923743E-1,.11450058E-2
STARLINK-37464,2026-117AE,2026-06-06T06:00:02.000160,16.03725370,.00006806,53.1556,298.1729,48.1867,102.2528,0,U,69266,999,241,-.29104877E-2,-.1888728E-1,.11121749E-2
KUIPER-00282,2026-118A,2026-06-06T06:00:02.000160,15.35037607,.0011457,51.8575,106.2624,142.8480,36.8086,0,U,69267,999,167,.19542655E-2,.67805E-3,0
KUIPER-00383,2026-118B,2026-06-06T06:00:02.000160,15.35766041,.00110836,51.8579,106.2398,141.4100,49.2238,0,U,69268,999,173,.12082095E-3,.3888E-4,0
KUIPER-00527,2026-118C,2026-06-06T06:00:02.000160,15.36003800,.0009666,51.8606,106.2215,135.8914,63.8498,0,U,69269,999,130,.1817979E-2,.64977E-3,0
KUIPER-00562,2026-118D,2026-06-06T06:00:02.000160,15.38340683,.00020648,51.8716,106.0907,83.4836,173.8077,0,U,69270,999,226,.1824629E-2,.70315E-3,0
KUIPER-00570,2026-118E,2026-06-06T06:00:02.000160,15.35531831,.00111837,51.8565,106.2391,144.7850,46.1851,0,U,69271,999,185,.18977603E-2,.66872E-3,0
KUIPER-00572,2026-118F,2026-06-06T06:00:02.000160,15.36715131,.00073615,51.8664,106.1890,130.8571,83.9723,0,U,69272,999,160,.1835968E-2,.67127E-3,0
KUIPER-00581,2026-118G,2026-06-06T06:00:02.000160,15.36388522,.00088835,51.8643,106.2071,135.5673,70.9327,0,U,69273,999,239,.18046022E-2,.6529E-3,0
KUIPER-00584,2026-118H,2026-06-06T06:00:02.000160,15.35201343,.00110233,51.8592,106.2547,148.3899,34.9872,0,U,69274,999,130,.17910081E-2,.62382E-3,0
KUIPER-00587,2026-118J,2026-06-06T06:00:02.000160,15.36363765,.00083289,51.8617,106.2013,137.2684,72.4248,0,U,69275,999,130,.18316758E-2,.6622E-3,0
KUIPER-00590,2026-118K,2026-06-06T06:00:02.000160,15.37596266,.00044702,51.8680,106.1410,117.8069,120.0402,0,U,69276,999,215,.1869078E-2,.70323E-3,0
KUIPER-00592,2026-118L,2026-06-06T06:00:02.000160,15.37801185,.00039003,51.8702,106.1267,96.7328,146.5039,0,U,69277,999,130,.18589851E-2,.70405E-3,0
KUIPER-00593,2026-118M,2026-06-06T06:00:02.000160,15.37715938,.00042108,51.8707,106.1263,113.2683,129.4711,0,U,69278,999,236,.18511562E-2,.69911E-3,0
KUIPER-00594,2026-118N,2026-06-06T06:00:02.000160,15.38523776,.00015676,51.8714,106.0842,55.1167,207.3524,0,U,69279,999,130,.18044476E-2,.69946E-3,0
KUIPER-00595,2026-118P,2026-06-06T06:00:02.000160,15.38208230,.00020983,51.8706,106.1006,95.3124,160.3838,0,U,69280,999,233,.18678428E-2,.71692E-3,0
KUIPER-00596,2026-118Q,2026-06-06T06:00:02.000160,15.35539300,.00118615,51.8541,106.2493,143.9740,41.6663,0,U,69281,999,160,.18004692E-2,.63426E-3,0
KUIPER-00597,2026-118R,2026-06-06T06:00:02.000160,15.36892682,.00071055,51.8640,106.1762,130.5432,91.2240,0,U,69282,999,130,.18903277E-2,.69544E-3,0
KUIPER-00599,2026-118S,2026-06-06T06:00:02.000160,15.37078270,.00064116,51.8683,106.1659,123.3847,102.0371,0,U,69283,999,140,.20016799E-2,.74142E-3,0
KUIPER-00600,2026-118T,2026-06-06T06:00:02.000160,15.36469385,.00090331,51.8630,106.1985,131.2661,79.5963,0,U,69284,999,218,.19165797E-2,.69589E-3,0
KUIPER-00601,2026-118U,2026-06-06T06:00:02.000160,15.37403044,.00049809,51.8697,106.1490,116.3000,116.5133,0,U,69285,999,221,.18741297E-2,.70074E-3,0
