STARLINK-37396          
1 69256U 26117U   26157.25002315 -.02124591  13152-2 -43088-2 0  9999
2 69256  53.1567 298.3271 0000570  66.0518  11.2465 15.99033804  2482
STARLINK-37508          
1 69257U 26117V   26157.25002315 -.02144909  13437-2 -42812-2 0  9995
2 69257  53.1564 298.3139 0000660  58.1732  25.3310 15.99317187  2409
STARLINK-37276          
1 69258U 26117W   26157.25002315 -.01820142  10356-2 -28280-2 0  9995
2 69258  53.1561 298.2642 0000518  52.3603  54.7268 16.03580565  2406
STARLINK-37518          
1 69259U 26117X   26157.25002315 -.01815926  10301-2 -28349-2 0  9996
2 69259  53.1560 298.2524 0000566  46.2265  66.9131 16.03500749  2415
STARLINK-37478          
1 69260U 26117Y   26157.25002315 -.01950665  11710-2 -31512-2 0  9999
2 69260  53.1562 298.2454 0000687  48.0114  68.5052 16.02942473  2411
STARLINK-37506          
1 69261U 26117Z   26157.25002315 -.01985163  12119-2 -31903-2 0  9999
2 69261  53.1558 298.2364 0000644  49.2982  71.4934 16.03033030  2419
STARLINK-37503          
1 69262U 26117AA  26157.25002315 -.02037931  12747-2 -32684-2 0  9996
2 69262  53.1560 298.2240 0000673  48.7221  77.7130 16.03072552  2417
STARLINK-37502          
1 69263U 26117AB  26157.25002315 -.01951744  11692-2 -31930-2 0  9994
2 69263  53.1559 298.2168 0000639  52.7523  76.9680 16.02729840  2416
STARLINK-37486          
1 69264U 26117AC  26157.25002315 -.01925950  11405-2 -31453-2 0  9997
2 69264  53.1556 298.2054 0000640  51.3856  83.9965 16.02756324  2415
STARLINK-37435          
1 69265U 26117AD  26157.25002315 -.01923743  11450-2 -30486-2 0  9991
2 69265  53.1556 298.1891 0000589  49.4424  93.2918 16.03262041  2416
STARLINK-37464          
1 69266U 26117AE  26157.25002315 -.01888728  11122-2 -29105-2 0  9997
2 69266  53.1556 298.1729 0000680  48.1867 102.2528 16.03725370  2413
KUIPER-00282            
1 69267U 26118A   26157.25002315  .00067805  00000+0  19543-2 0  9996
2 69267  51.8575 106.2624 0011457 142.8480  36.8086 15.35037607  1671
KUIPER-00383            
1 69268U 26118B   26157.25002315  .00003888  00000+0  12082-3 0  9990
2 69268  51.8579 106.2398 0011083 141.4100  49.2238 15.35766041  1738
KUIPER-00527            
1 69269U 26118C   26157.25002315  .00064977  00000+0  18180-2 0  9991
2 69269  51.8606 106.2215 0009666 135.8914  63.8498 15.36003800  1303
KUIPER-00562            
1 69270U 26118D   26157.25002315  .00070315  00000+0  18246-2 0  9999
2 69270  51.8716 106.0907 0002064  83.4836 173.8077 15.38340683  2265
KUIPER-00570            
1 69271U 26118E   26157.25002315  .00066872  00000+0  18978-2 0  9995
2 69271  51.8565 106.2391 0011183 144.7850  46.1851 15.35531831  1856
KUIPER-00572            
1 69272U 26118F   26157.25002315  .00067127  00000+0  18360-2 0  9995
2 69272  51.8664 106.1890 0007361 130.8571  83.9723 15.36715131  1607
KUIPER-00581            
1 69273U 26118G   26157.25002315  .00065290  00000+0  18046-2 0  9996
2 69273  51.8643 106.2071 0008883 135.5673  70.9327 15.36388522  2395
KUIPER-00584            
1 69274U 26118H   26157.25002315  .00062382  00000+0  17910-2 0  9995
2 69274  51.8592 106.2547 0011023 148.3899  34.9872 15.35201343  1308
KUIPER-00587            
1 69275U 26118J   26157.25002315  .00066220  00000+0  18317-2 0  9993
2 69275  51.8617 106.2013 0008328 137.2684  72.4248 15.36363765  1300
KUIPER-00590            
1 69276U 26118K   26157.25002315  .00070323  00000+0  18691-2 0  9998
2 69276  51.8680 106.1410 0004470 117.8069 120.0402 15.37596266  2157
KUIPER-00592            
1 69277U 26118L   26157.25002315  .00070405  00000+0  18590-2 0  9998
2 69277  51.8702 106.1267 0003900  96.7328 146.5039 15.37801185  1307
KUIPER-00593            
1 69278U 26118M   26157.25002315  .00069911  00000+0  18512-2 0  9993
2 69278  51.8707 106.1263 0004210 113.2683 129.4711 15.37715938  2367
KUIPER-00594            
1 69279U 26118N   26157.25002315  .00069946  00000+0  18044-2 0  9992
2 69279  51.8714 106.0842 0001567  55.1167 207.3524 15.38523776  1300
KUIPER-00595            
1 69280U 26118P   26157.25002315  .00071692  00000+0  18678-2 0  9998
2 69280  51.8706 106.1006 0002098  95.3124 160.3838 15.38208230  2330
KUIPER-00596            
1 69281U 26118Q   26157.25002315  .00063426  00000+0  18005-2 0  9999
2 69281  51.8541 106.2493 0011861 143.9740  41.6663 15.35539300  1609
KUIPER-00597            
1 69282U 26118R   26157.25002315  .00069544  00000+0  18903-2 0  9994
2 69282  51.8640 106.1762 0007105 130.5432  91.2240 15.36892682  1309
KUIPER-00599            
1 69283U 26118S   26157.25002315  .00074142  00000+0  20017-2 0  9994
2 69283  51.8683 106.1659 0006411 123.3847 102.0371 15.37078270  1408
KUIPER-00600            
1 69284U 26118T   26157.25002315  .00069589  00000+0  19166-2 0  9997
2 69284  51.8630 106.1985 0009033 131.2661  79.5963 15.36469385  2189
KUIPER-00601            
1 69285U 26118U   26157.25002315  .00070074  00000+0  18741-2 0  9997
2 69285  51.8697 106.1490 0004980 116.3000 116.5133 15.37403044  2217
